STARLINK-4679           
1 53782U 22111K   24024.67136079  .00004278  00000+0  28663-3 0  9991
2 53782  53.2162 153.3906 0001590  66.5755 293.5404 15.08851741 76697
STARLINK-4536           
1 53783U 22111L   24024.59037393 -.00005392  00000+0 -32085-3 0  9995
2 53783  53.2170 153.5926 0001464  99.8557 260.2601 15.08846849 75872
STARLINK-4687           
1 53784U 22111M   24024.66767469  .00000276  00000+0  35424-4 0  9993
2 53784  53.2185 153.3673 0001729  80.2927 279.8261 15.08839754 76691
STARLINK-4631           
1 53786U 22111P   24024.56279816 -.00000120  00000+0  10556-4 0  9996
2 53786  53.2170 143.5642 0001272  85.7844 274.3294 15.08835388 76825
STARLINK-4743           
1 53787U 22111Q   24024.64925094 -.00000311  00000+0 -14361-5 0  9994
2 53787  53.2179 153.2534 0001467 104.2361 255.8795 15.08833900 76693
STARLINK-4666           
1 53789U 22111S   24024.57195278  .00004416  00000+0  29529-3 0  9999
2 53789  53.2160 153.4817 0001545  94.1151 266.0018 15.08849704 76671
STARLINK-4734           
1 53790U 22111T   24024.58669568 -.00000545  00000+0 -16187-4 0  9998
2 53790  53.2176 153.5755 0001350 103.8803 256.2339 15.08835677 76680
STARLINK-4739           
1 53792U 22111V   24024.64556192 -.00002453  00000+0 -13604-3 0  9995
2 53792  53.2179 153.2319 0002083 129.2123 230.9054 15.08845638 75881
STARLINK-4728           
1 53793U 22111W   24024.64283737 -.00000148  00000+0  88184-5 0  9993
2 53793  53.2179 153.2135 0001367 102.5164 257.5981 15.08835098 76683
STARLINK-4730           
1 53794U 22111X   24024.65020842 -.00000226  00000+0  39021-5 0  9994
2 53794  53.2180 153.2567 0001448 103.3352 256.7801 15.08834449 76684
STARLINK-4742           
1 53795U 22111Y   24024.63450637  .00000301  00000+0  37024-4 0  9995
2 53795  53.2174 153.1602 0001370  88.0596 272.0553 15.08847591 76687
STARLINK-4721           
1 53796U 22111Z   24024.57379103  .00001944  00000+0  14024-3 0  9995
2 53796  53.2170 133.4168 0001399  81.1692 278.9459 15.08825263 76237
STARLINK-4723           
1 53797U 22111AA  24024.62345792 -.00000646  00000+0 -22502-4 0  9990
2 53797  53.2153 153.1019 0001404  76.2955 283.8193 15.08839160 76676
STARLINK-4712           
1 53798U 22111AB  24024.62713867 -.00000474  00000+0 -11686-4 0  9993
2 53798  53.2174 153.1150 0001397 102.4966 257.6183 15.08839836 76679
STARLINK-4710           
1 53799U 22111AC  24024.60331494 -.00000504  00000+0 -13552-4 0  9992
2 53799  53.2177 143.6907 0001608  98.9369 261.1805 15.08836212 76809
STARLINK-4720           
1 53800U 22111AD  24024.59130660  .00002235  00000+0  15849-3 0  9996
2 53800  53.2178 143.6208 0001849  61.6747 298.4432 15.08832434 75991
STARLINK-4715           
1 53801U 22111AE  24024.63648162  .00000232  00000+0  32654-4 0  9992
2 53801  53.2171 143.8851 0001373  83.5739 276.5409 15.08831705 76809
STARLINK-4726           
1 53802U 22111AF  24024.65017570  .00000947  00000+0  77595-4 0  9994
2 53802  53.2175 143.2783 0001885  60.4666 299.6514 15.08836858 76811
STARLINK-4727           
1 53803U 22111AG  24024.59821697 -.00000043  00000+0  15360-4 0  9991
2 53803  53.2162 128.6895 0001327  76.0784 284.0356 15.08838440 77018
STARLINK-4729           
1 53804U 22111AH  24024.57612324  .00002075  00000+0  14834-3 0  9995
2 53804  53.2176 138.5234 0001518  86.4158 273.7008 15.08855651 76069
STARLINK-4763           
1 53805U 22111AJ  24024.60654577 -.00000251  00000+0  23045-5 0  9997
2 53805  53.2175 128.7342 0001496  73.9485 286.1672 15.08840312 77018
STARLINK-4768           
1 53806U 22111AK  24024.57979371 -.00000851  00000+0 -35409-4 0  9999
2 53806  53.2181 128.5697 0001637 107.7153 252.4018 15.08833951 77013
BLUEWALKER 3            
1 53807U 22111AL  24024.61651726  .00007092  00000+0  30445-3 0  9992
2 53807  53.2355 138.5954 0009958  27.4487 332.7036 15.23755714 76171
CHINASAT 1E (ZX 1E)     
1 53813U 22112A   24024.61676898 -.00000148  00000+0  00000+0 0  9993
2 53813   0.2445 278.7161 0003034  20.7964 127.2761  1.00269522  5083
STRIX-1                 
1 53815U 22113A   24025.13035448  .00008667  00000+0  58751-3 0  9997
2 53815  97.5807  77.6162 0009518  62.4888 297.7305 15.06654289 74525
STARLINK-4749           
1 53818U 22114A   24024.62041267 -.00012682  00000+0 -62961-3 0  9992
2 53818  53.2187 165.4393 0000619 102.5986 257.5079 15.16446435 75546
STARLINK-4738           
1 53819U 22114B   24024.71372323  .00000380  00000+0  41971-4 0  9992
2 53819  53.2170 183.3135 0001546 120.5793 239.5352 15.08840770 75835
STARLINK-4758           
1 53820U 22114C   24024.71645659 -.00000316  00000+0 -17317-5 0  9998
2 53820  53.2159 183.3317 0001528  67.9046 292.2108 15.08839341 75838
STARLINK-4752           
1 53821U 22114D   24024.59914211  .00000297  00000+0  36745-4 0  9999
2 53821  53.2166 128.4491 0001311  86.7981 273.3161 15.08839556 76598
STARLINK-4748           
1 53823U 22114F   24024.62304341 -.00003785  00000+0 -21984-3 0  9997
2 53823  53.2170 138.5125 0001273  88.3926 271.7212 15.08845474 76455
STARLINK-4757           
1 53824U 22114G   24024.90410139 -.00002437  00000+0 -13502-3 0  9992
2 53824  53.2164 182.3678 0001283 100.8614 259.2523 15.08847662 75775
STARLINK-4751           
1 53825U 22114H   24024.70908722 -.00001053  00000+0 -48105-4 0  9992
2 53825  53.2159 183.2853 0001329  77.3952 282.7189 15.08838616 75834
STARLINK-4756           
1 53826U 22114J   24024.75690210  .00001294  00000+0  99380-4 0  9994
2 53826  53.2179 182.8752 0001636  57.2179 302.8971 15.08837235 75849
STARLINK-4764           
1 53827U 22114K   24024.70171769  .00000009  00000+0  18637-4 0  9992
2 53827  53.2183 183.2432 0001676  69.2506 290.8665 15.08837197 75838
STARLINK-4760           
1 53828U 22114L   24024.75321722  .00000194  00000+0  30270-4 0  9996
2 53828  53.2173 182.8518 0001630  64.5274 295.5887 15.08841486 75843
STARLINK-4759           
1 53829U 22114M   24024.69803174  .00000150  00000+0  27507-4 0  9997
2 53829  53.2179 183.2177 0001713  65.0954 295.0216 15.08839646 75834
STARLINK-4761           
1 53830U 22114N   24024.74585072  .00000088  00000+0  23598-4 0  9995
2 53830  53.2165 182.8062 0001535  65.9927 294.1226 15.08837259 75840
STARLINK-4649           
1 53831U 22114P   24024.76058365  .00001032  00000+0  82898-4 0  9996
2 53831  53.2174 182.8923 0001559  66.2255 293.8901 15.08843366 75843
STARLINK-4747           
1 53832U 22114Q   24024.67224013 -.00000382  00000+0 -59026-5 0  9999
2 53832  53.2179 183.0626 0001462 107.6643 252.4508 15.08845741 75838
STARLINK-4771           
1 53833U 22114R   24024.74953470  .00001840  00000+0  13369-3 0  9990
2 53833  53.2163 182.8287 0001183  95.7480 264.3647 15.08828929 75844
STARLINK-4737           
1 53834U 22114S   24024.73111384  .00001820  00000+0  13248-3 0  9994
2 53834  53.2171 182.7140 0001616 111.4747 248.6418 15.08821969 75842
STARLINK-4783           
1 53835U 22114T   24024.74214444  .00005504  00000+0  36342-3 0  9990
2 53835  53.2155 182.7838 0001293  92.7904 267.3236 15.08864690 75840
STARLINK-4778           
1 53836U 22114U   24024.64745608  .00000560  00000+0  53279-4 0  9997
2 53836  53.2177 173.6264 0001635 107.1146 253.0025 15.08832237 75969
STARLINK-4776           
1 53837U 22114V   24024.73478760 -.00005053  00000+0 -29942-3 0  9993
2 53837  53.2165 182.7395 0001790 137.9099 222.2031 15.08859046 75842
STARLINK-4773           
1 53838U 22114W   24024.71000898 -.00000021  00000+0  16765-4 0  9994
2 53838  53.2175 173.3086 0001363  93.6698 266.4450 15.08835072 75978
STARLINK-4784           
1 53839U 22114X   24024.71737888 -.00000361  00000+0 -45765-5 0  9992
2 53839  53.2163 173.3518 0001420  80.9603 279.1550 15.08836106 75976
STARLINK-4766           
1 53840U 22114Y   24024.69991070 -.00000110  00000+0  11204-4 0  9997
2 53840  53.2179 173.2457 0001589 110.9929 249.1233 15.08835059 75978
STARLINK-4750           
1 53841U 22114Z   24024.64008242 -.00000223  00000+0  40868-5 0  9997
2 53841  53.2175 173.5808 0001488 112.3234 247.7916 15.08834413 75965
STARLINK-4754           
1 53842U 22114AA  24024.69158364 -.00000757  00000+0 -29456-4 0  9996
2 53842  53.2164 173.1982 0001392  72.1567 287.9577 15.08836631 75973
STARLINK-4769           
1 53843U 22114AB  24024.63639831  .00000940  00000+0  77189-4 0  9992
2 53843  53.2179 173.5597 0001252 108.4730 251.6398 15.08826497 75963
STARLINK-4745           
1 53844U 22114AC  24024.68421369  .00002493  00000+0  17472-3 0  9996
2 53844  53.2163 173.1501 0001405  72.2960 287.8185 15.08833211 75979
STARLINK-4753           
1 53845U 22114AD  24024.69527099 -.00000099  00000+0  11900-4 0  9997
2 53845  53.2174 173.2373 0001502  96.3534 263.7630 15.08837252 75979
STARLINK-4746           
1 53846U 22114AE  24024.67684558  .00000550  00000+0  52650-4 0  9998
2 53846  53.2153 173.1027 0001625  69.6888 290.4279 15.08837680 75974
STARLINK-4777           
1 53847U 22114AF  24024.68789940  .00000058  00000+0  21749-4 0  9999
2 53847  53.2182 173.1729 0001486  94.2137 265.9025 15.08837136 75974
STARLINK-4780           
1 53848U 22114AG  24024.66947661  .00000595  00000+0  55456-4 0  9992
2 53848  53.2171 173.0578 0001553  64.5723 295.5430 15.08838248 75974
STARLINK-4770           
1 53849U 22114AH  24024.68052803  .00000611  00000+0  56490-4 0  9998
2 53849  53.2170 173.1224 0001402  71.6795 288.4349 15.08840275 75977
STARLINK-4767           
1 53850U 22114AJ  24024.72466082  .00000832  00000+0  70329-4 0  9995
2 53850  53.2161 172.6903 0001225  93.0802 267.0331 15.08840661 75981
STARLINK-4755           
1 53851U 22114AK  24024.67316003  .00000540  00000+0  52040-4 0  9993
2 53851  53.2174 173.0818 0001560  65.8955 294.2200 15.08839653 75979
STARLINK-4797           
1 53852U 22114AL  24024.62027910 -.00000416  00000+0 -80175-5 0  9990
2 53852  53.2179 168.4747 0001495 112.1021 248.0130 15.08835444 75491
STARLINK-4794           
1 53853U 22114AM  24024.73203063  .00000128  00000+0  26143-4 0  9990
2 53853  53.2176 172.7322 0001443  73.8740 286.2410 15.08839153 75980
